; Full-Coverage Path (Surface Machining, Left-to-Right)
; Generated by mesh_coverage_path.py v2.1
; Total points: 644

G21        ; mm units
G90        ; absolute positioning
G28        ; home

G1 X-15.873 Y325.935 Z746.354 F500
G1 X-21.466 Y324.925 Z746.788 F500
G1 X-24.435 Y324.262 Z747.202 F500
G1 X-28.558 Y323.725 Z747.769 F500
G1 X-32.650 Y323.094 Z748.229 F500
G1 X-36.693 Y322.656 Z748.655 F500
G1 X-40.741 Y321.776 Z749.135 F500
G1 X-44.804 Y321.093 Z749.680 F500
G1 X-49.022 Y320.694 Z749.981 F500
G1 X-53.058 Y320.017 Z750.342 F500
G1 X-57.013 Y319.312 Z750.766 F500
G1 X-61.155 Y318.844 Z751.153 F500
G1 X-65.208 Y318.621 Z751.474 F500
G1 X-69.221 Y318.725 Z751.707 F500
G1 X-73.448 Y319.083 Z752.199 F500
G1 X-77.492 Y319.646 Z752.434 F500
G1 X-81.530 Y320.370 Z752.687 F500
G1 X-85.916 Y319.987 Z753.150 F500
G1 X-90.074 Y319.317 Z753.482 F500
G1 X-94.107 Y319.833 Z753.706 F500
G1 X-98.158 Y320.298 Z753.925 F500
G1 X-101.983 Y320.910 Z753.875 F500
G1 X-105.867 Y321.683 Z753.999 F500
G1 X-109.686 Y322.696 Z754.162 F500
G1 X-113.532 Y323.638 Z754.004 F500
G1 X-117.383 Y324.755 Z753.800 F500
G1 X-121.354 Y325.968 Z753.582 F500
G1 X-125.474 Y326.904 Z752.624 F500
G1 X-129.482 Y327.900 Z752.111 F500
G1 X-133.694 Y328.570 Z750.854 F500
G1 X-137.942 Y328.843 Z749.303 F500
G1 X-142.186 Y329.060 Z747.863 F500
G1 X-146.211 Y329.084 Z745.729 F500
G1 X-150.651 Y329.109 Z743.967 F500
G1 X-154.771 Y328.977 Z742.067 F500
G1 X-159.038 Y328.741 Z740.078 F500
G1 X-163.229 Y328.001 Z738.207 F500
G1 X-167.172 Y327.372 Z736.419 F500
G1 X-171.057 Y326.628 Z734.632 F500
G1 X-175.062 Y325.655 Z732.731 F500
G1 X-179.066 Y325.123 Z731.159 F500
G1 X-182.979 Y324.701 Z729.315 F500
G1 X-186.921 Y324.182 Z727.807 F500
G1 X-190.092 Y323.462 Z726.549 F500
G1 X-192.282 Y322.828 Z725.451 F500
G1 X-193.314 Y322.290 Z724.532 F500
G1 X-193.067 Y321.893 Z723.874 F500
G1 X-191.607 Y321.530 Z723.338 F500
G1 X-189.117 Y321.242 Z723.057 F500
G1 X-185.427 Y321.042 Z722.975 F500
G1 X-181.193 Y321.082 Z722.982 F500
G1 X-177.197 Y321.241 Z723.135 F500
G1 X-172.894 Y321.789 Z723.163 F500
G1 X-168.627 Y322.307 Z723.082 F500
G1 X-164.564 Y322.752 Z722.752 F500
G1 X-160.156 Y323.027 Z722.404 F500
G1 X-155.733 Y322.501 Z722.108 F500
G1 X-151.414 Y322.529 Z721.683 F500
G1 X-146.840 Y322.532 Z720.930 F500
G1 X-142.557 Y322.152 Z720.616 F500
G1 X-138.245 Y321.660 Z720.434 F500
G1 X-133.904 Y321.157 Z720.674 F500
G1 X-129.533 Y320.676 Z720.807 F500
G1 X-125.323 Y320.172 Z720.904 F500
G1 X-121.153 Y319.737 Z720.986 F500
G1 X-116.979 Y319.470 Z721.008 F500
G1 X-112.786 Y319.066 Z720.933 F500
G1 X-108.620 Y318.455 Z720.845 F500
G1 X-104.420 Y317.848 Z720.719 F500
G1 X-100.233 Y317.247 Z720.550 F500
G1 X-96.118 Y316.523 Z720.367 F500
G1 X-92.028 Y315.705 Z720.160 F500
G1 X-87.969 Y314.766 Z719.978 F500
G1 X-83.866 Y313.805 Z719.808 F500
G1 X-79.654 Y312.894 Z719.664 F500
G1 X-75.447 Y312.019 Z719.534 F500
G1 X-71.039 Y311.483 Z719.283 F500
G1 X-66.634 Y310.981 Z719.159 F500
G1 X-62.228 Y311.156 Z718.884 F500
G1 X-57.784 Y311.823 Z718.443 F500
G1 X-53.525 Y312.492 Z718.095 F500
G1 X-49.242 Y313.063 Z717.686 F500
G1 X-45.092 Y313.975 Z717.186 F500
G1 X-41.002 Y314.759 Z716.787 F500
G1 X-36.829 Y315.581 Z716.300 F500
G1 X-32.693 Y316.192 Z715.843 F500
G1 X-28.579 Y316.725 Z715.396 F500
G1 X-24.373 Y316.797 Z715.061 F500
G1 X-20.185 Y316.894 Z714.825 F500
G1 X-15.961 Y317.612 Z714.333 F500
G1 X-11.825 Y318.471 Z713.831 F500
G1 X-7.852 Y319.431 Z713.378 F500
G1 X-3.843 Y320.445 Z712.964 F500
G1 X0.273 Y320.692 Z712.724 F500
G1 X4.521 Y321.137 Z712.387 F500
G1 X8.488 Y322.501 Z711.967 F500
G1 X12.411 Y323.770 Z711.550 F500
G1 X16.526 Y324.651 Z711.170 F500
G1 X20.602 Y325.471 Z710.554 F500
G1 X24.484 Y326.081 Z709.678 F500
G1 X28.073 Y326.570 Z708.475 F500
G1 X31.422 Y326.777 Z707.039 F500
G1 X34.451 Y326.912 Z705.329 F500
G1 X37.199 Y326.832 Z703.398 F500
G1 X39.581 Y326.646 Z701.208 F500
G1 X41.925 Y326.427 Z698.868 F500
G1 X44.338 Y326.255 Z696.455 F500
G1 X46.784 Y326.165 Z694.009 F500
G1 X49.321 Y326.073 Z691.471 F500
G1 X53.462 Y326.014 Z687.331 F500
G1 X57.312 Y326.036 Z683.481 F500
G1 X60.837 Y326.053 Z679.956 F500
G1 X63.981 Y326.065 Z676.812 F500
G1 X71.802 Y326.483 Z673.740 F500
G1 X76.405 Y326.624 Z672.276 F500
G1 X80.006 Y326.311 Z668.676 F500
G1 X81.694 Y326.164 Z666.988 F500
G1 X88.793 Y326.098 Z665.851 F500
G1 X90.718 Y325.967 Z664.676 F500
G1 X100.006 Y324.427 Z657.963 F500
G1 X104.170 Y324.228 Z657.963 F500
G1 X108.856 Y323.990 Z657.963 F500
G1 X114.067 Y323.712 Z657.963 F500
G1 X119.554 Y323.407 Z657.962 F500
G1 X121.847 Y323.279 Z657.963 F500
G1 X121.963 Y323.273 Z657.963 F500
G1 X119.747 Y323.396 Z657.962 F500
G1 X116.400 Y323.583 Z657.961 F500
G1 X110.913 Y323.881 Z657.963 F500
G1 X106.029 Y324.139 Z657.963 F500
G1 X101.744 Y324.344 Z657.963 F500
G1 X97.438 Y324.592 Z657.963 F500
G1 X90.718 Y325.895 Z664.079 F500
G1 X88.346 Y326.096 Z665.851 F500
G1 X83.976 Y326.071 Z665.851 F500
G1 X80.153 Y326.298 Z668.529 F500
G1 X77.100 Y326.389 Z670.306 F500
G1 X72.752 Y326.255 Z671.478 F500
G1 X68.403 Y326.051 Z672.703 F500
G1 X64.492 Y325.760 Z673.454 F500
G1 X60.256 Y325.353 Z673.936 F500
G1 X55.962 Y324.878 Z674.315 F500
G1 X51.682 Y324.392 Z674.695 F500
G1 X47.474 Y323.670 Z675.089 F500
G1 X43.278 Y322.940 Z675.456 F500
G1 X39.134 Y322.128 Z675.834 F500
G1 X34.982 Y321.344 Z676.211 F500
G1 X30.867 Y320.646 Z676.582 F500
G1 X26.749 Y320.010 Z676.963 F500
G1 X22.612 Y319.484 Z677.328 F500
G1 X18.453 Y318.954 Z677.696 F500
G1 X14.319 Y318.338 Z678.085 F500
G1 X10.164 Y317.717 Z678.472 F500
G1 X6.036 Y317.022 Z678.870 F500
G1 X1.924 Y316.311 Z679.264 F500
G1 X-2.201 Y315.531 Z679.640 F500
G1 X-6.330 Y314.734 Z679.995 F500
G1 X-10.520 Y313.870 Z680.405 F500
G1 X-14.711 Y313.060 Z680.750 F500
G1 X-18.858 Y312.422 Z681.040 F500
G1 X-23.085 Y312.196 Z681.330 F500
G1 X-27.300 Y312.140 Z681.473 F500
G1 X-31.441 Y311.487 Z681.789 F500
G1 X-35.496 Y310.771 Z682.043 F500
G1 X-39.650 Y310.157 Z682.407 F500
G1 X-43.836 Y309.518 Z682.819 F500
G1 X-48.011 Y308.569 Z683.252 F500
G1 X-52.357 Y308.047 Z683.775 F500
G1 X-56.801 Y307.743 Z684.267 F500
G1 X-61.387 Y307.427 Z684.855 F500
G1 X-65.984 Y307.142 Z685.458 F500
G1 X-70.454 Y307.334 Z685.911 F500
G1 X-74.838 Y307.439 Z686.395 F500
G1 X-79.137 Y308.025 Z686.837 F500
G1 X-83.441 Y308.444 Z687.334 F500
G1 X-87.597 Y308.917 Z687.789 F500
G1 X-91.725 Y309.105 Z688.219 F500
G1 X-95.873 Y309.246 Z688.685 F500
G1 X-100.070 Y309.395 Z689.056 F500
G1 X-104.288 Y309.567 Z689.395 F500
G1 X-108.645 Y309.807 Z689.618 F500
G1 X-112.873 Y310.103 Z689.712 F500
G1 X-117.080 Y310.467 Z689.792 F500
G1 X-121.204 Y310.858 Z689.840 F500
G1 X-125.344 Y310.917 Z690.040 F500
G1 X-129.332 Y310.887 Z690.242 F500
G1 X-133.345 Y310.513 Z690.617 F500
G1 X-137.320 Y310.082 Z691.032 F500
G1 X-141.259 Y309.275 Z691.677 F500
G1 X-145.209 Y308.449 Z692.347 F500
G1 X-149.309 Y307.802 Z692.955 F500
G1 X-153.381 Y306.909 Z693.581 F500
G1 X-157.534 Y306.178 Z694.130 F500
G1 X-162.249 Y305.241 Z694.103 F500
G1 X-166.880 Y304.506 Z694.128 F500
G1 X-171.727 Y303.610 Z694.279 F500
G1 X-177.502 Y303.828 Z693.152 F500
G1 X-182.089 Y304.877 Z692.942 F500
G1 X-187.100 Y306.939 Z692.972 F500
G1 X-190.548 Y309.590 Z692.898 F500
G1 X-193.885 Y311.895 Z693.502 F500
G1 X-198.150 Y313.051 Z693.818 F500
G1 X-201.742 Y313.758 Z694.390 F500
G1 X-205.425 Y314.296 Z695.042 F500
G1 X-209.041 Y316.335 Z696.005 F500
G1 X-212.849 Y317.337 Z696.181 F500
G1 X-216.809 Y317.719 Z695.676 F500
G1 X-220.359 Y318.833 Z695.709 F500
G1 X-224.557 Y319.994 Z695.627 F500
G1 X-228.396 Y321.529 Z695.218 F500
G1 X-231.974 Y323.051 Z694.241 F500
G1 X-235.622 Y324.005 Z693.119 F500
G1 X-239.074 Y324.695 Z691.679 F500
G1 X-242.769 Y325.283 Z689.517 F500
G1 X-246.446 Y325.837 Z687.172 F500
G1 X-248.483 Y325.742 Z684.065 F500
G1 X-253.234 Y325.878 Z681.072 F500
G1 X-256.372 Y325.189 Z678.245 F500
G1 X-259.898 Y324.145 Z675.189 F500
G1 X-263.177 Y323.203 Z672.510 F500
G1 X-265.222 Y323.244 Z669.941 F500
G1 X-265.754 Y323.277 Z668.047 F500
G1 X-265.528 Y322.756 Z666.249 F500
G1 X-263.536 Y322.548 Z664.636 F500
G1 X-261.328 Y322.101 Z663.236 F500
G1 X-257.554 Y321.574 Z662.516 F500
G1 X-252.996 Y320.443 Z661.859 F500
G1 X-248.580 Y319.082 Z661.822 F500
G1 X-244.479 Y317.794 Z661.720 F500
G1 X-240.394 Y316.486 Z661.657 F500
G1 X-236.539 Y315.924 Z661.529 F500
G1 X-232.530 Y314.455 Z661.921 F500
G1 X-228.914 Y313.060 Z662.283 F500
G1 X-225.175 Y311.476 Z662.672 F500
G1 X-221.370 Y310.337 Z662.705 F500
G1 X-217.606 Y308.707 Z662.975 F500
G1 X-213.702 Y307.720 Z663.227 F500
G1 X-209.779 Y306.506 Z663.582 F500
G1 X-205.309 Y305.544 Z663.636 F500
G1 X-201.033 Y304.205 Z663.532 F500
G1 X-196.671 Y302.995 Z663.343 F500
G1 X-191.883 Y302.484 Z662.859 F500
G1 X-187.399 Y302.064 Z662.461 F500
G1 X-182.357 Y301.619 Z661.596 F500
G1 X-177.523 Y301.304 Z660.659 F500
G1 X-173.069 Y301.371 Z659.925 F500
G1 X-168.404 Y301.391 Z659.406 F500
G1 X-163.979 Y301.958 Z658.907 F500
G1 X-159.539 Y302.484 Z658.398 F500
G1 X-155.305 Y302.933 Z657.891 F500
G1 X-151.192 Y303.369 Z657.624 F500
G1 X-147.235 Y303.793 Z657.355 F500
G1 X-143.031 Y304.069 Z656.889 F500
G1 X-139.079 Y304.269 Z656.387 F500
G1 X-135.305 Y304.273 Z656.040 F500
G1 X-131.388 Y304.300 Z655.691 F500
G1 X-127.393 Y304.275 Z655.292 F500
G1 X-123.148 Y303.716 Z654.665 F500
G1 X-118.555 Y303.249 Z653.813 F500
G1 X-114.178 Y302.792 Z653.162 F500
G1 X-109.872 Y302.838 Z652.389 F500
G1 X-105.686 Y303.215 Z651.652 F500
G1 X-101.285 Y304.058 Z651.344 F500
G1 X-96.914 Y304.422 Z651.198 F500
G1 X-92.938 Y303.897 Z651.047 F500
G1 X-89.072 Y303.969 Z651.456 F500
G1 X-85.187 Y303.773 Z651.389 F500
G1 X-80.784 Y303.645 Z651.263 F500
G1 X-76.395 Y303.615 Z650.969 F500
G1 X-71.722 Y303.379 Z650.583 F500
G1 X-66.957 Y303.352 Z650.191 F500
G1 X-62.706 Y303.243 Z649.550 F500
G1 X-57.587 Y303.330 Z648.904 F500
G1 X-53.022 Y304.496 Z648.338 F500
G1 X-48.504 Y305.260 Z647.817 F500
G1 X-43.607 Y305.660 Z647.250 F500
G1 X-39.785 Y307.084 Z646.852 F500
G1 X-36.175 Y308.451 Z646.415 F500
G1 X-31.943 Y309.512 Z646.149 F500
G1 X-28.222 Y310.590 Z646.226 F500
G1 X-24.136 Y310.756 Z646.156 F500
G1 X-20.176 Y311.123 Z646.146 F500
G1 X-16.010 Y311.614 Z646.150 F500
G1 X-11.943 Y312.293 Z646.037 F500
G1 X-7.651 Y312.938 Z645.907 F500
G1 X-3.392 Y313.426 Z645.689 F500
G1 X0.707 Y314.435 Z645.409 F500
G1 X4.785 Y315.371 Z645.081 F500
G1 X8.950 Y316.078 Z644.741 F500
G1 X12.979 Y316.917 Z644.371 F500
G1 X17.062 Y317.585 Z644.054 F500
G1 X21.247 Y318.222 Z643.791 F500
G1 X25.349 Y319.520 Z643.203 F500
G1 X29.511 Y320.673 Z642.755 F500
G1 X33.910 Y321.256 Z642.567 F500
G1 X38.320 Y321.061 Z641.574 F500
G1 X42.601 Y320.404 Z641.509 F500
G1 X46.843 Y319.847 Z641.274 F500
G1 X51.083 Y319.341 Z640.976 F500
G1 X55.356 Y319.494 Z640.696 F500
G1 X59.486 Y319.732 Z640.295 F500
G1 X63.766 Y319.544 Z640.137 F500
G1 X67.960 Y319.095 Z639.988 F500
G1 X72.188 Y318.670 Z639.848 F500
G1 X76.460 Y318.359 Z639.682 F500
G1 X80.690 Y318.474 Z639.372 F500
G1 X84.917 Y318.514 Z639.061 F500
G1 X89.154 Y318.428 Z638.801 F500
G1 X93.392 Y318.317 Z638.553 F500
G1 X97.621 Y318.249 Z638.284 F500
G1 X101.854 Y318.180 Z638.011 F500
G1 X106.087 Y318.085 Z637.745 F500
G1 X110.326 Y317.907 Z637.494 F500
G1 X114.558 Y317.678 Z637.260 F500
G1 X118.781 Y317.515 Z636.971 F500
G1 X123.003 Y317.282 Z636.697 F500
G1 X127.226 Y317.179 Z636.399 F500
G1 X131.445 Y316.903 Z636.147 F500
G1 X135.722 Y316.697 Z635.872 F500
G1 X139.993 Y316.518 Z635.602 F500
G1 X144.325 Y316.253 Z635.257 F500
G1 X148.709 Y316.295 Z634.911 F500
G1 X152.986 Y316.513 Z634.576 F500
G1 X157.319 Y317.603 Z633.920 F500
G1 X161.371 Y318.890 Z633.504 F500
G1 X165.242 Y320.168 Z633.029 F500
G1 X168.440 Y321.287 Z632.031 F500
G1 X170.849 Y322.172 Z630.627 F500
G1 X172.581 Y322.821 Z628.689 F500
G1 X173.625 Y323.339 Z626.183 F500
G1 X174.026 Y323.845 Z623.232 F500
G1 X173.716 Y324.296 Z619.679 F500
G1 X172.719 Y324.583 Z615.666 F500
G1 X171.498 Y325.443 Z611.883 F500
G1 X170.085 Y325.990 Z608.503 F500
G1 X168.127 Y326.072 Z605.671 F500
G1 X165.704 Y326.341 Z603.560 F500
G1 X162.748 Y326.499 Z601.948 F500
G1 X159.356 Y326.011 Z600.959 F500
G1 X155.781 Y325.229 Z600.562 F500
G1 X151.804 Y324.310 Z600.571 F500
G1 X147.655 Y323.198 Z600.721 F500
G1 X143.571 Y322.464 Z600.939 F500
G1 X139.492 Y321.956 Z601.166 F500
G1 X135.392 Y320.977 Z601.274 F500
G1 X131.404 Y319.618 Z601.355 F500
G1 X127.391 Y318.209 Z601.431 F500
G1 X123.374 Y316.839 Z601.475 F500
G1 X119.013 Y316.009 Z601.833 F500
G1 X114.700 Y315.676 Z602.080 F500
G1 X110.480 Y314.939 Z602.325 F500
G1 X106.149 Y314.207 Z602.717 F500
G1 X101.817 Y314.292 Z602.996 F500
G1 X97.474 Y314.311 Z603.412 F500
G1 X93.051 Y313.809 Z603.709 F500
G1 X88.646 Y313.713 Z604.049 F500
G1 X84.356 Y314.092 Z604.482 F500
G1 X80.018 Y314.749 Z604.890 F500
G1 X75.704 Y315.521 Z605.260 F500
G1 X71.570 Y316.420 Z605.646 F500
G1 X67.436 Y317.242 Z606.025 F500
G1 X63.385 Y318.192 Z606.447 F500
G1 X59.251 Y318.891 Z606.874 F500
G1 X55.121 Y319.440 Z607.290 F500
G1 X50.976 Y320.148 Z607.760 F500
G1 X46.748 Y320.520 Z608.134 F500
G1 X42.505 Y320.850 Z608.517 F500
G1 X38.264 Y321.208 Z608.936 F500
G1 X33.982 Y321.332 Z609.276 F500
G1 X29.635 Y321.261 Z609.652 F500
G1 X25.311 Y321.239 Z610.020 F500
G1 X21.015 Y321.240 Z610.359 F500
G1 X16.654 Y320.552 Z610.573 F500
G1 X12.512 Y319.593 Z610.714 F500
G1 X8.310 Y318.831 Z610.862 F500
G1 X4.101 Y318.088 Z611.032 F500
G1 X-0.017 Y317.242 Z611.146 F500
G1 X-4.158 Y316.420 Z611.285 F500
G1 X-8.330 Y315.644 Z611.475 F500
G1 X-12.517 Y314.979 Z611.760 F500
G1 X-16.746 Y314.682 Z612.084 F500
G1 X-20.962 Y314.429 Z612.381 F500
G1 X-25.067 Y313.909 Z612.628 F500
G1 X-29.255 Y313.404 Z613.024 F500
G1 X-33.221 Y312.774 Z613.448 F500
G1 X-37.267 Y312.002 Z613.748 F500
G1 X-41.293 Y311.071 Z613.987 F500
G1 X-45.337 Y310.249 Z614.231 F500
G1 X-49.367 Y309.184 Z614.515 F500
G1 X-53.578 Y308.300 Z614.792 F500
G1 X-57.765 Y307.478 Z614.930 F500
G1 X-62.277 Y306.695 Z615.127 F500
G1 X-66.694 Y305.996 Z615.454 F500
G1 X-71.142 Y305.604 Z615.749 F500
G1 X-75.592 Y305.334 Z616.073 F500
G1 X-80.041 Y305.257 Z616.327 F500
G1 X-84.486 Y305.204 Z616.600 F500
G1 X-88.799 Y305.027 Z616.867 F500
G1 X-93.017 Y304.988 Z617.076 F500
G1 X-97.097 Y304.933 Z617.244 F500
G1 X-101.196 Y304.824 Z617.466 F500
G1 X-105.230 Y304.696 Z617.612 F500
G1 X-109.221 Y304.301 Z617.972 F500
G1 X-113.327 Y303.805 Z618.022 F500
G1 X-117.530 Y303.194 Z618.186 F500
G1 X-121.718 Y302.530 Z618.341 F500
G1 X-126.034 Y302.131 Z618.646 F500
G1 X-130.343 Y301.787 Z618.956 F500
G1 X-134.983 Y301.639 Z619.064 F500
G1 X-139.724 Y301.465 Z619.003 F500
G1 X-144.024 Y301.104 Z619.493 F500
G1 X-148.831 Y300.866 Z619.825 F500
G1 X-153.352 Y300.964 Z620.511 F500
G1 X-157.819 Y301.147 Z621.260 F500
G1 X-162.544 Y301.060 Z621.871 F500
G1 X-166.657 Y301.878 Z622.823 F500
G1 X-170.754 Y302.303 Z623.617 F500
G1 X-175.295 Y302.693 Z624.061 F500
G1 X-179.259 Y303.116 Z624.316 F500
G1 X-183.589 Y303.466 Z624.264 F500
G1 X-187.859 Y304.155 Z624.151 F500
G1 X-191.967 Y304.634 Z624.342 F500
G1 X-196.047 Y305.264 Z624.626 F500
G1 X-200.256 Y306.052 Z625.128 F500
G1 X-204.499 Y305.908 Z625.510 F500
G1 X-208.772 Y306.065 Z626.108 F500
G1 X-212.792 Y306.539 Z626.733 F500
G1 X-216.869 Y307.063 Z627.414 F500
G1 X-221.165 Y308.017 Z627.735 F500
G1 X-225.432 Y308.786 Z628.166 F500
G1 X-229.679 Y308.991 Z628.483 F500
G1 X-233.879 Y309.400 Z628.756 F500
G1 X-237.830 Y310.268 Z629.020 F500
G1 X-241.889 Y311.241 Z629.231 F500
G1 X-246.134 Y312.569 Z629.592 F500
G1 X-250.065 Y312.531 Z629.750 F500
G1 X-253.651 Y312.341 Z629.942 F500
G1 X-257.855 Y312.706 Z630.187 F500
G1 X-262.115 Y314.961 Z630.661 F500
G1 X-265.568 Y318.151 Z631.067 F500
G1 X-269.594 Y319.146 Z631.445 F500
G1 X-273.539 Y319.900 Z631.922 F500
G1 X-276.921 Y320.070 Z631.840 F500
G1 X-279.831 Y320.195 Z630.987 F500
G1 X-281.671 Y320.778 Z629.614 F500
G1 X-282.555 Y321.201 Z627.652 F500
G1 X-282.704 Y321.640 Z625.085 F500
G1 X-282.570 Y322.110 Z621.874 F500
G1 X-281.908 Y322.661 Z618.006 F500
G1 X-281.057 Y323.572 Z614.116 F500
G1 X-279.870 Y324.271 Z610.599 F500
G1 X-278.329 Y324.899 Z607.579 F500
G1 X-276.110 Y325.106 Z605.036 F500
G1 X-273.534 Y324.849 Z602.898 F500
G1 X-270.428 Y324.368 Z601.197 F500
G1 X-266.811 Y323.414 Z599.857 F500
G1 X-262.904 Y322.123 Z599.156 F500
G1 X-259.005 Y320.602 Z598.527 F500
G1 X-255.034 Y319.106 Z597.908 F500
G1 X-251.517 Y317.458 Z596.959 F500
G1 X-248.117 Y315.568 Z595.956 F500
G1 X-244.938 Y313.639 Z594.673 F500
G1 X-241.252 Y311.950 Z594.049 F500
G1 X-236.316 Y312.339 Z594.124 F500
G1 X-232.475 Y312.996 Z594.108 F500
G1 X-228.186 Y312.795 Z593.560 F500
G1 X-223.847 Y312.266 Z593.149 F500
G1 X-219.765 Y311.404 Z592.695 F500
G1 X-215.480 Y310.757 Z592.143 F500
G1 X-211.204 Y310.936 Z591.687 F500
G1 X-207.076 Y311.257 Z591.380 F500
G1 X-202.676 Y311.095 Z590.909 F500
G1 X-198.416 Y311.020 Z590.419 F500
G1 X-194.373 Y310.608 Z589.867 F500
G1 X-190.220 Y310.540 Z589.350 F500
G1 X-186.163 Y310.916 Z589.248 F500
G1 X-182.029 Y310.581 Z588.844 F500
G1 X-177.822 Y310.075 Z588.193 F500
G1 X-173.752 Y309.487 Z587.591 F500
G1 X-169.704 Y308.731 Z586.901 F500
G1 X-165.307 Y308.400 Z586.571 F500
G1 X-160.908 Y308.066 Z586.295 F500
G1 X-156.447 Y307.857 Z586.119 F500
G1 X-151.953 Y307.608 Z585.948 F500
G1 X-147.568 Y307.578 Z585.931 F500
G1 X-143.209 Y307.485 Z585.898 F500
G1 X-138.875 Y307.603 Z585.876 F500
G1 X-134.581 Y307.806 Z585.706 F500
G1 X-130.279 Y308.026 Z585.550 F500
G1 X-126.058 Y308.215 Z585.226 F500
G1 X-121.831 Y308.479 Z584.922 F500
G1 X-117.669 Y308.754 Z584.621 F500
G1 X-113.506 Y309.006 Z584.322 F500
G1 X-109.360 Y309.130 Z584.000 F500
G1 X-105.234 Y309.210 Z583.696 F500
G1 X-101.081 Y309.165 Z583.360 F500
G1 X-96.916 Y309.059 Z583.048 F500
G1 X-92.627 Y308.868 Z582.641 F500
G1 X-88.256 Y308.746 Z582.246 F500
G1 X-83.905 Y308.583 Z581.856 F500
G1 X-79.407 Y308.664 Z581.478 F500
G1 X-74.967 Y309.039 Z581.196 F500
G1 X-70.485 Y309.552 Z580.985 F500
G1 X-66.043 Y310.146 Z580.710 F500
G1 X-61.812 Y310.885 Z580.493 F500
G1 X-57.627 Y311.898 Z580.386 F500
G1 X-53.544 Y313.077 Z580.296 F500
G1 X-49.442 Y314.021 Z580.181 F500
G1 X-45.322 Y314.790 Z579.988 F500
G1 X-41.299 Y315.594 Z579.770 F500
G1 X-37.204 Y316.315 Z579.565 F500
G1 X-33.082 Y316.973 Z579.372 F500
G1 X-28.921 Y317.587 Z579.108 F500
G1 X-24.783 Y318.457 Z578.857 F500
G1 X-20.705 Y319.443 Z578.585 F500
G1 X-16.547 Y319.940 Z578.292 F500
G1 X-12.562 Y320.288 Z578.027 F500
G1 X-8.631 Y320.784 Z577.787 F500
G1 X-4.303 Y321.449 Z577.520 F500
G1 X-0.406 Y323.079 Z577.389 F500
G1 X3.267 Y324.672 Z577.079 F500
G1 X7.766 Y325.617 Z576.675 F500
G1 X12.064 Y326.344 Z576.391 F500
G1 X16.740 Y327.120 Z576.115 F500
G1 X21.724 Y327.859 Z575.847 F500
G1 X26.261 Y328.051 Z575.633 F500
G1 X30.930 Y327.856 Z575.281 F500
G1 X35.625 Y327.066 Z575.051 F500
G1 X40.054 Y326.249 Z574.797 F500
G1 X44.582 Y325.410 Z574.415 F500
G1 X48.696 Y324.738 Z573.931 F500
G1 X52.764 Y323.717 Z573.465 F500
G1 X56.617 Y322.367 Z573.053 F500
G1 X60.713 Y321.161 Z572.646 F500
G1 X64.796 Y320.544 Z572.321 F500
G1 X68.821 Y319.964 Z571.957 F500
G1 X72.874 Y319.605 Z571.654 F500
G1 X77.103 Y319.498 Z571.339 F500
G1 X81.297 Y319.661 Z571.117 F500
G1 X85.515 Y320.089 Z570.837 F500
G1 X89.692 Y320.606 Z570.662 F500
G1 X93.931 Y320.897 Z570.437 F500
G1 X98.169 Y321.117 Z570.210 F500
G1 X102.368 Y321.821 Z570.041 F500
G1 X106.602 Y322.341 Z569.843 F500
G1 X110.809 Y322.537 Z569.589 F500
G1 X114.911 Y322.557 Z569.207 F500
G1 X119.082 Y322.912 Z568.863 F500
G1 X123.181 Y323.603 Z568.516 F500
G1 X127.317 Y324.465 Z568.279 F500
G1 X130.432 Y325.363 Z567.891 F500
G1 X132.480 Y325.754 Z567.279 F500
G1 X133.391 Y325.996 Z566.523 F500
G1 X133.292 Y326.118 Z565.544 F500
G1 X131.889 Y326.074 Z564.369 F500
G1 X129.388 Y325.927 Z563.070 F500
G1 X125.733 Y325.786 Z561.597 F500
G1 X121.861 Y325.603 Z559.985 F500
G1 X117.976 Y325.169 Z558.314 F500
G1 X114.035 Y325.059 Z556.589 F500
G1 X110.042 Y324.925 Z554.969 F500
G1 X106.154 Y324.676 Z553.374 F500
G1 X102.287 Y324.245 Z551.798 F500
G1 X98.424 Y323.809 Z550.257 F500
G1 X94.579 Y323.378 Z548.808 F500
G1 X90.969 Y323.126 Z547.332 F500
G1 X87.039 Y323.689 Z545.825 F500
G1 X83.304 Y324.237 Z544.392 F500
G1 X79.654 Y325.430 Z543.290 F500
G1 X75.668 Y325.831 Z542.059 F500
G1 X71.709 Y326.303 Z541.112 F500
G1 X68.276 Y326.744 Z540.394 F500
G1 X64.092 Y327.068 Z540.964 F500
G1 X60.643 Y327.298 Z541.922 F500
G1 X59.165 Y327.309 Z543.167 F500
G1 X54.697 Y327.214 Z547.525 F500
G1 X51.152 Y327.493 Z547.650 F500
G1 X48.087 Y327.540 Z550.714 F500
G1 X41.122 Y327.939 Z555.414 F500
G1 X36.576 Y328.596 Z555.414 F500
G1 X31.154 Y329.084 Z555.883 F500
G1 X22.202 Y329.084 Z555.845 F500
G1 X16.846 Y328.603 Z555.414 F500
G1 X12.349 Y327.985 Z555.414 F500
G1 X3.946 Y327.580 Z549.661 F500
G1 X3.549 Y327.710 Z548.633 F500
G1 X-0.700 Y327.424 Z547.539 F500
G1 X-3.212 Y327.111 Z547.525 F500
G1 X-6.303 Y326.622 Z547.525 F500
G1 X-9.933 Y326.012 Z547.525 F500
G1 X-14.042 Y325.829 Z546.910 F500
G1 X-18.243 Y325.739 Z546.910 F500
G1 X-22.467 Y325.700 Z547.037 F500
G1 X-26.667 Y325.739 Z547.205 F500
G1 X-30.968 Y325.313 Z547.466 F500
G1 X-35.128 Y324.797 Z547.693 F500
G1 X-39.389 Y323.916 Z548.059 F500
G1 X-43.720 Y323.118 Z548.377 F500
G1 X-47.678 Y323.087 Z548.960 F500
G1 X-51.647 Y322.718 Z549.240 F500
G1 X-55.661 Y322.320 Z549.432 F500
G1 X-60.012 Y322.099 Z549.850 F500
G1 X-64.234 Y322.444 Z550.561 F500
G1 X-68.449 Y322.639 Z550.975 F500
G1 X-72.689 Y322.456 Z551.311 F500
G1 X-77.028 Y322.108 Z551.485 F500
G1 X-81.371 Y321.730 Z551.749 F500
G1 X-85.686 Y321.502 Z552.096 F500
G1 X-89.904 Y321.403 Z552.394 F500
G1 X-94.174 Y321.149 Z552.591 F500
G1 X-98.421 Y320.869 Z552.758 F500
G1 X-102.710 Y320.537 Z552.899 F500
G1 X-106.992 Y320.190 Z553.045 F500
G1 X-111.243 Y319.704 Z553.114 F500
G1 X-115.479 Y319.258 Z553.237 F500
G1 X-119.694 Y318.841 Z553.371 F500
G1 X-123.881 Y318.372 Z553.479 F500
G1 X-128.034 Y317.743 Z553.479 F500
G1 X-132.218 Y317.344 Z553.618 F500
G1 X-136.377 Y317.025 Z553.805 F500
G1 X-140.553 Y316.834 Z554.106 F500
G1 X-144.675 Y316.994 Z554.456 F500
G1 X-148.800 Y317.425 Z554.926 F500
G1 X-152.791 Y317.859 Z555.407 F500
G1 X-156.787 Y318.397 Z555.996 F500
G1 X-160.786 Y318.935 Z556.625 F500
G1 X-164.761 Y319.880 Z557.361 F500
G1 X-168.862 Y320.898 Z558.116 F500
G1 X-172.989 Y321.742 Z558.892 F500
G1 X-177.148 Y322.522 Z559.607 F500
G1 X-181.509 Y322.792 Z560.073 F500
G1 X-185.790 Y323.042 Z560.529 F500
G1 X-190.268 Y323.450 Z560.878 F500
G1 X-194.733 Y323.869 Z561.260 F500
G1 X-199.084 Y324.438 Z561.713 F500
G1 X-203.528 Y324.599 Z562.165 F500
G1 X-207.897 Y324.582 Z562.573 F500
G1 X-212.322 Y324.318 Z562.974 F500
G1 X-216.710 Y323.967 Z563.356 F500
G1 X-220.833 Y323.768 Z563.902 F500
G1 X-224.709 Y323.570 Z564.368 F500
G1 X-229.043 Y323.341 Z565.185 F500
G1 X-232.706 Y323.358 Z565.551 F500
G1 X-235.264 Y323.828 Z565.618 F500

M2 ; end
