; Full-Coverage Path — generated by point_cloud_processor
; Total points: 280

G21
G90
G28

G1 X-77.117 Y520.216 Z537.286 F500
G1 X-75.254 Y520.262 Z537.986 F500
G1 X-73.602 Y520.059 Z538.599 F500
G1 X-71.574 Y520.127 Z539.298 F500
G1 X-69.697 Y520.193 Z539.980 F500
G1 X-67.912 Y520.153 Z540.633 F500
G1 X-65.628 Y520.351 Z541.407 F500
G1 X-64.077 Y520.388 Z541.940 F500
G1 X-62.188 Y520.430 Z542.523 F500
G1 X-60.275 Y520.470 Z543.110 F500
G1 X-58.350 Y520.513 Z543.683 F500
G1 X-56.406 Y520.570 Z544.250 F500
G1 X-54.459 Y520.628 Z544.811 F500
G1 X-52.497 Y520.687 Z545.365 F500
G1 X-50.519 Y520.748 Z545.872 F500
G1 X-48.522 Y520.808 Z546.372 F500
G1 X-46.522 Y520.868 Z546.862 F500
G1 X-44.487 Y520.926 Z547.300 F500
G1 X-42.457 Y520.985 Z547.727 F500
G1 X-40.423 Y521.042 Z548.150 F500
G1 X-38.359 Y521.094 Z548.517 F500
G1 X-36.290 Y521.138 Z548.851 F500
G1 X-34.215 Y521.185 Z549.189 F500
G1 X-32.119 Y521.225 Z549.471 F500
G1 X-30.004 Y521.257 Z549.723 F500
G1 X-27.883 Y521.299 Z550.003 F500
G1 X-25.769 Y521.349 Z550.329 F500
G1 X-23.653 Y521.400 Z550.664 F500
G1 X-21.532 Y521.447 Z550.999 F500
G1 X-19.385 Y521.486 Z551.272 F500
G1 X-17.246 Y521.523 Z551.532 F500
G1 X-15.103 Y521.558 Z551.791 F500
G1 X-12.914 Y521.572 Z551.917 F500
G1 X-10.749 Y521.585 Z551.999 F500
G1 X-8.588 Y521.593 Z552.079 F500
G1 X-6.403 Y521.600 Z552.160 F500
G1 X-4.214 Y521.605 Z552.238 F500
G1 X-2.020 Y521.610 Z552.290 F500
G1 X0.166 Y521.609 Z552.293 F500
G1 X2.351 Y521.604 Z552.297 F500
G1 X4.543 Y521.598 Z552.282 F500
G1 X6.721 Y521.585 Z552.226 F500
G1 X8.895 Y521.570 Z552.180 F500
G1 X11.080 Y521.552 Z552.100 F500
G1 X13.245 Y521.525 Z551.947 F500
G1 X15.404 Y521.502 Z551.797 F500
G1 X17.560 Y521.477 Z551.632 F500
G1 X19.704 Y521.446 Z551.445 F500
G1 X21.849 Y521.420 Z551.268 F500
G1 X23.998 Y521.386 Z551.026 F500
G1 X26.121 Y521.344 Z550.706 F500
G1 X28.242 Y521.303 Z550.395 F500
G1 X30.346 Y521.263 Z550.087 F500
G1 X32.449 Y521.221 Z549.778 F500
G1 X34.551 Y521.178 Z549.470 F500
G1 X36.644 Y521.136 Z549.172 F500
G1 X38.737 Y521.096 Z548.872 F500
G1 X40.825 Y521.055 Z548.569 F500
G1 X42.899 Y521.006 Z548.225 F500
G1 X44.942 Y520.948 Z547.831 F500
G1 X46.984 Y520.893 Z547.458 F500
G1 X49.029 Y520.831 Z547.064 F500
G1 X51.046 Y520.758 Z546.625 F500
G1 X53.057 Y520.687 Z546.194 F500
G1 X55.067 Y520.614 Z545.754 F500
G1 X57.060 Y520.535 Z545.283 F500
G1 X59.070 Y520.463 Z544.837 F500
G1 X61.099 Y520.387 Z544.390 F500
G1 X63.078 Y520.296 Z543.821 F500
G1 X65.041 Y520.205 Z543.265 F500
G1 X67.018 Y520.102 Z542.702 F500
G1 X68.891 Y519.890 Z542.142 F500
G1 X70.674 Y519.602 Z541.612 F500
G1 X72.376 Y519.199 Z541.129 F500
G1 X74.001 Y518.680 Z540.715 F500
G1 X75.551 Y518.077 Z540.403 F500
G1 X77.023 Y517.355 Z540.124 F500
G1 X78.392 Y516.511 Z539.833 F500
G1 X79.670 Y515.554 Z539.576 F500
G1 X80.865 Y514.484 Z539.340 F500
G1 X81.979 Y513.292 Z539.135 F500
G1 X83.008 Y512.001 Z538.963 F500
G1 X83.946 Y510.584 Z538.807 F500
G1 X84.770 Y509.057 Z538.657 F500
G1 X85.506 Y507.432 Z538.537 F500
G1 X86.149 Y505.685 Z538.450 F500
G1 X86.702 Y503.798 Z538.379 F500
G1 X87.065 Y501.883 Z538.362 F500
G1 X87.289 Y500.072 Z538.382 F500
G1 X87.379 Y498.342 Z538.439 F500
G1 X87.315 Y496.737 Z538.492 F500
G1 X87.115 Y495.260 Z538.586 F500
G1 X86.782 Y493.888 Z538.718 F500
G1 X86.299 Y492.632 Z538.894 F500
G1 X85.684 Y491.501 Z539.124 F500
G1 X84.935 Y490.492 Z539.400 F500
G1 X84.047 Y489.607 Z539.717 F500
G1 X83.017 Y488.850 Z540.078 F500
G1 X81.851 Y488.202 Z540.489 F500
G1 X80.542 Y487.679 Z540.944 F500
G1 X79.085 Y487.278 Z541.415 F500
G1 X77.493 Y486.983 Z541.962 F500
G1 X75.759 Y486.813 Z542.570 F500
G1 X73.907 Y486.790 Z543.227 F500
G1 X71.987 Y486.815 Z543.880 F500
G1 X70.053 Y486.841 Z544.530 F500
G1 X68.115 Y486.856 Z545.189 F500
G1 X66.130 Y486.880 Z545.838 F500
G1 X64.132 Y486.902 Z546.402 F500
G1 X62.125 Y486.926 Z546.968 F500
G1 X60.090 Y486.955 Z547.498 F500
G1 X58.073 Y486.982 Z547.965 F500
G1 X56.051 Y487.007 Z548.433 F500
G1 X53.998 Y487.030 Z548.878 F500
G1 X51.923 Y487.028 Z549.240 F500
G1 X49.847 Y487.025 Z549.584 F500
G1 X47.759 Y487.021 Z549.910 F500
G1 X45.657 Y487.015 Z550.192 F500
G1 X43.550 Y487.007 Z550.478 F500
G1 X41.446 Y487.001 Z550.787 F500
G1 X39.334 Y486.997 Z551.170 F500
G1 X37.227 Y486.999 Z551.552 F500
G1 X35.130 Y486.996 Z551.967 F500
G1 X33.012 Y486.994 Z552.293 F500
G1 X30.899 Y486.998 Z552.620 F500
G1 X28.787 Y487.001 Z552.932 F500
G1 X26.721 Y487.002 Z553.197 F500
G1 X24.613 Y486.965 Z553.467 F500
G1 X22.444 Y486.940 Z553.724 F500
G1 X20.238 Y486.873 Z553.949 F500
G1 X17.975 Y486.835 Z554.186 F500
G1 X15.739 Y486.817 Z554.397 F500
G1 X13.499 Y486.793 Z554.604 F500
G1 X11.259 Y486.771 Z554.810 F500
G1 X9.038 Y486.721 Z555.081 F500
G1 X6.810 Y486.692 Z555.309 F500
G1 X4.562 Y486.661 Z555.452 F500
G1 X2.230 Y486.606 Z555.490 F500
G1 X-0.086 Y486.622 Z555.414 F500
G1 X-2.315 Y486.601 Z555.178 F500
G1 X-4.565 Y486.586 Z554.994 F500
G1 X-6.817 Y486.568 Z554.806 F500
G1 X-9.092 Y486.568 Z554.609 F500
G1 X-11.377 Y486.568 Z554.391 F500
G1 X-13.630 Y486.595 Z554.176 F500
G1 X-15.858 Y486.612 Z553.910 F500
G1 X-18.034 Y486.671 Z553.591 F500
G1 X-20.152 Y486.697 Z553.280 F500
G1 X-22.286 Y486.727 Z552.925 F500
G1 X-24.415 Y486.756 Z552.565 F500
G1 X-26.543 Y486.784 Z552.206 F500
G1 X-28.661 Y486.813 Z551.836 F500
G1 X-30.794 Y486.840 Z551.500 F500
G1 X-32.923 Y486.865 Z551.165 F500
G1 X-35.020 Y486.887 Z550.802 F500
G1 X-37.098 Y486.908 Z550.414 F500
G1 X-39.181 Y486.922 Z550.025 F500
G1 X-41.250 Y486.926 Z549.611 F500
G1 X-43.307 Y486.932 Z549.176 F500
G1 X-45.340 Y486.921 Z548.735 F500
G1 X-47.400 Y486.911 Z548.235 F500
G1 X-49.415 Y486.905 Z547.688 F500
G1 X-51.427 Y486.898 Z547.143 F500
G1 X-53.420 Y486.892 Z546.634 F500
G1 X-55.423 Y486.868 Z546.081 F500
G1 X-57.399 Y486.860 Z545.510 F500
G1 X-59.367 Y486.851 Z544.934 F500
G1 X-61.315 Y486.842 Z544.324 F500
G1 X-63.255 Y486.825 Z543.716 F500
G1 X-65.172 Y486.830 Z543.063 F500
G1 X-67.053 Y486.816 Z542.379 F500
G1 X-68.877 Y486.719 Z541.725 F500
G1 X-70.600 Y486.499 Z541.110 F500
G1 X-72.208 Y486.161 Z540.535 F500
G1 X-73.710 Y485.733 Z540.002 F500
G1 X-75.106 Y485.200 Z539.516 F500
G1 X-76.384 Y484.543 Z539.077 F500
G1 X-77.537 Y483.765 Z538.687 F500
G1 X-78.588 Y482.936 Z538.326 F500
G1 X-79.546 Y481.971 Z537.993 F500
G1 X-80.402 Y480.890 Z537.712 F500
G1 X-81.166 Y479.620 Z537.476 F500
G1 X-81.766 Y478.156 Z537.125 F500
G1 X-82.265 Y476.648 Z536.800 F500
G1 X-82.642 Y475.021 Z536.510 F500
G1 X-82.903 Y473.307 Z536.216 F500
G1 X-82.909 Y471.476 Z535.735 F500
G1 X-82.789 Y469.630 Z535.372 F500
G1 X-82.523 Y467.854 Z535.084 F500
G1 X-82.191 Y466.141 Z534.908 F500
G1 X-81.805 Y464.562 Z534.928 F500
G1 X-81.333 Y463.066 Z534.991 F500
G1 X-80.738 Y461.673 Z535.071 F500
G1 X-80.057 Y460.381 Z535.187 F500
G1 X-79.290 Y459.203 Z535.368 F500
G1 X-78.407 Y458.073 Z535.598 F500
G1 X-77.383 Y457.077 Z535.875 F500
G1 X-76.290 Y456.189 Z536.304 F500
G1 X-75.030 Y455.492 Z536.734 F500
G1 X-73.678 Y454.914 Z537.208 F500
G1 X-72.197 Y454.436 Z537.735 F500
G1 X-70.549 Y454.027 Z538.191 F500
G1 X-68.830 Y453.765 Z538.637 F500
G1 X-66.995 Y453.617 Z539.139 F500
G1 X-65.112 Y453.508 Z539.674 F500
G1 X-63.233 Y453.388 Z540.264 F500
G1 X-61.336 Y453.264 Z540.860 F500
G1 X-59.420 Y453.128 Z541.442 F500
G1 X-57.470 Y452.994 Z542.009 F500
G1 X-55.491 Y452.860 Z542.537 F500
G1 X-53.491 Y452.743 Z543.038 F500
G1 X-51.441 Y452.630 Z543.474 F500
G1 X-49.384 Y452.516 Z543.865 F500
G1 X-47.303 Y452.444 Z544.234 F500
G1 X-45.220 Y452.367 Z544.611 F500
G1 X-43.186 Y452.286 Z544.996 F500
G1 X-41.145 Y452.203 Z545.379 F500
G1 X-39.082 Y452.099 Z545.764 F500
G1 X-37.033 Y451.992 Z546.151 F500
G1 X-34.953 Y451.883 Z546.482 F500
G1 X-32.865 Y451.812 Z546.741 F500
G1 X-30.735 Y451.800 Z546.905 F500
G1 X-28.630 Y451.799 Z546.902 F500
G1 X-26.466 Y451.753 Z547.110 F500
G1 X-24.365 Y451.666 Z547.526 F500
G1 X-22.249 Y451.607 Z547.846 F500
G1 X-20.124 Y451.532 Z548.187 F500
G1 X-18.000 Y451.445 Z548.574 F500
G1 X-15.878 Y451.375 Z548.966 F500
G1 X-13.718 Y451.341 Z549.272 F500
G1 X-11.573 Y451.299 Z549.497 F500
G1 X-9.439 Y451.264 Z549.689 F500
G1 X-7.238 Y451.237 Z549.852 F500
G1 X-5.059 Y451.217 Z549.979 F500
G1 X-2.882 Y451.231 Z550.113 F500
G1 X-0.672 Y451.255 Z550.206 F500
G1 X1.536 Y451.292 Z550.272 F500
G1 X3.739 Y451.332 Z550.314 F500
G1 X5.936 Y451.384 Z550.263 F500
G1 X8.112 Y451.432 Z550.203 F500
G1 X10.287 Y451.478 Z550.169 F500
G1 X12.472 Y451.508 Z550.211 F500
G1 X14.665 Y451.553 Z550.203 F500
G1 X16.853 Y451.595 Z550.170 F500
G1 X19.038 Y451.639 Z550.128 F500
G1 X21.220 Y451.667 Z550.090 F500
G1 X23.407 Y451.695 Z550.049 F500
G1 X25.578 Y451.730 Z549.964 F500
G1 X27.739 Y451.752 Z549.890 F500
G1 X29.929 Y451.773 Z549.798 F500
G1 X32.116 Y451.814 Z549.596 F500
G1 X34.280 Y451.834 Z549.394 F500
G1 X36.451 Y451.862 Z549.177 F500
G1 X38.623 Y451.893 Z548.897 F500
G1 X40.781 Y451.932 Z548.602 F500
G1 X42.934 Y451.979 Z548.267 F500
G1 X45.050 Y452.024 Z547.897 F500
G1 X47.183 Y452.066 Z547.566 F500
G1 X49.297 Y452.118 Z547.190 F500
G1 X51.376 Y452.179 Z546.770 F500
G1 X53.451 Y452.244 Z546.351 F500
G1 X55.530 Y452.328 Z545.851 F500
G1 X57.537 Y452.428 Z545.278 F500
G1 X59.542 Y452.531 Z544.718 F500
G1 X61.528 Y452.634 Z544.154 F500
G1 X63.509 Y452.751 Z543.570 F500
G1 X65.492 Y452.865 Z542.985 F500
G1 X67.460 Y452.965 Z542.408 F500
G1 X69.414 Y453.054 Z541.809 F500
G1 X71.364 Y453.141 Z541.212 F500
G1 X73.299 Y453.221 Z540.637 F500
G1 X75.157 Y453.304 Z540.042 F500
G1 X77.137 Y453.563 Z539.428 F500
G1 X79.052 Y453.679 Z538.808 F500
G1 X81.058 Y453.747 Z538.178 F500
G1 X82.954 Y453.674 Z537.568 F500
G1 X84.832 Y453.547 Z536.937 F500
G1 X86.717 Y453.647 Z536.328 F500
G1 X88.628 Y453.717 Z535.696 F500
G1 X89.394 Y453.745 Z535.443 F500

M2 ; end
